<!DOCTYPE html PUBLIC "-//W3C//DTD XHTML 1.0 Strict//EN" "http://www.w3.org/TR/xhtml1/DTD/xhtml1-strict.dtd">
<html xmlns="http://www.w3.org/1999/xhtml">
<head>
<meta http-equiv="Content-Type" content="text/html; charset=iso-8859-1"/>
<title>404 - File Not Found.</title>
<style type="text/css">
<!--
body{margin:0;font-size:.7em;font-family:Verdana, Arial, Helvetica, sans-serif;background:#EEEEEE;}
fieldset{padding:0 15px 10px 15px;}
h1{font-size:2.4em;margin:0;color:#FFF;}
h2{font-size:1.7em;margin:0;color:#CC0000;}
h3{font-size:1.2em;margin:10px 0 0 0;color:#000000;}
#header{width:96%;margin:0 0 0 0;padding:6px 2% 6px 2%;font-family:"trebuchet MS", Verdana, sans-serif;color:#FFF;
background-color:#555555;}
#content{margin:0 0 0 2%;position:relative;}
.content-container{background:#FFF;width:96%;margin-top:8px;padding:10px;position:relative;}
-->
</style>
</head>
<body>
<div id="header"><h1>Server Error</h1></div>
<div id="content">
 <div class="content-container"><fieldset>
  <h2>404 - File Not Found.</h2>
  <h3>File not found for celestrak.org/NORAD/elements/active.txt.</h3>
  <h3>Please contact <a href="mailto:ts.kelso@celestrak.org">ts.kelso@celestrak.org</a> if you have other questions.</h3>
 </fieldset></div>
</div>
</body>
</html>
OSCAR 7 (AO-7)          
1 07530U 74089B   24013.63034817 -.00000051  00000+0 -27249-4 0  9990
2 07530 101.9686   6.8826 0012328  22.3974  91.5133 12.53670992249541
PHASE 3B (AO-10)        
1 14129U 83058B   24012.04013565 -.00000355  00000+0  00000+0 0  9996
2 14129  27.4730   3.8952 6033020 235.9424  51.9011  2.05873097277220
UOSAT 2 (UO-11)         
1 14781U 84021B   24013.91065810  .00002553  00000+0  29884-3 0  9994
2 14781  97.6857 348.1329 0006920 220.6257 139.4443 14.85878701146420
LUSAT (LO-19)           
1 20442U 90005G   24013.70929268  .00000404  00000+0  16329-3 0  9990
2 20442  98.8691   0.0133 0010687 283.1670  76.8321 14.33410469775563
EYESAT A (AO-27)        
1 22825U 93061C   24014.11422452  .00000248  00000+0  11308-3 0  9999
2 22825  98.8134  65.1013 0008711 165.5514 194.5919 14.30409698580717
ITAMSAT (IO-26)         
1 22826U 93061D   24014.13360049  .00000267  00000+0  11941-3 0  9999
2 22826  98.8080  64.9820 0009445 152.0394 208.1298 14.30781933580978
RADIO ROSTO (RS-15)     
1 23439U 94085A   24013.55181720 -.00000019  00000+0  65991-3 0  9999
2 23439  64.8188 295.4645 0155173 172.6924 187.6312 11.27575348196047
JAS-2 (FO-29)           
1 24278U 96046B   24013.84617604 -.00000013  00000+0  24494-4 0  9995
2 24278  98.5624 328.9994 0349304 230.5875 126.3859 13.53169788353675
TECHSAT 1B (GO-32)      
1 25397U 98043D   24013.88439696  .00000231  00000+0  12051-3 0  9990
2 25397  98.9004 338.4826 0000440 203.0031 157.1127 14.23969060325531
ISS (ZARYA)             
1 25544U 98067A   24014.37346274  .00015662  00000+0  28800-3 0  9997
2 25544  51.6431   2.4387 0004979  90.2866  55.1910 15.49377144434542
PCSAT (NO-44)           
1 26931U 01043C   24013.36573592  .00000413  00000+0  18807-3 0  9993
2 26931  67.0515  14.0588 0005345 265.8716  94.1774 14.31091162163656
SAUDISAT 1C (SO-50)     
1 27607U 02058C   24014.17854180  .00002429  00000+0  34838-3 0  9997
2 27607  64.5568 337.6865 0043469 174.8731 185.2827 14.78182639133619
CUTE-1 (CO-55)          
1 27844U 03031E   24013.99455845  .00000680  00000+0  32120-3 0  9995
2 27844  98.6787  23.2021 0008899 231.2456 128.7928 14.23034340 65742
CUBESAT XI-IV (CO-57)   
1 27848U 03031J   24014.01026530  .00000582  00000+0  28017-3 0  9999
2 27848  98.6820  23.5434 0008672 248.2835 111.7420 14.22509218 65528
MOZHAYETS 4 (RS-22)     
1 27939U 03042A   24014.18185112  .00002481  00000+0  42957-3 0  9991
2 27939  98.2672 168.2212 0012143 184.9087 260.5528 14.69200775 85514
CUBESAT XI-V            
1 28895U 05043F   24013.34038659  .00003268  00000+0  59455-3 0  9991
2 28895  98.1782 149.3012 0016922 127.5108 232.7637 14.66701743971605
CUTE-1.7+APD II (CO-65) 
1 32785U 08021C   24013.53134313  .00007091  00000+0  66060-3 0  9996
2 32785  97.7363 340.6309 0013169 119.0881 241.1659 14.94504815852212
SEEDS II (CO-66)        
1 32791U 08021J   24013.90691291  .00011124  00000+0  89323-3 0  9996
2 32791  97.6798 346.5307 0009849  77.0677 283.1645 15.00182777853296
YUBILEINY (RS-30)       
1 32953U 08025A   24014.14618193  .00000021  00000+0  79220-4 0  9997
2 32953  82.5024 185.8958 0019918  84.6028 275.7323 12.43134167709866
KKS-1 (KISEKI)          
1 33499U 09002H   24014.15328957  .00002860  00000+0  40425-3 0  9993
2 33499  98.1536 273.9995 0007252 271.5077  88.5302 14.77941016805640
SWISSCUBE               
1 35932U 09051B   24013.18409723  .00001999  00000+0  44156-3 0  9991
2 35932  98.4929 253.2570 0008556  79.5262 280.6900 14.58418255759812
BEESAT-1                
1 35933U 09051C   24013.64532951  .00001855  00000+0  41205-3 0  9996
2 35933  98.4857 254.8284 0006799  89.3420 270.8557 14.58240115760037
ITUPSAT1                
1 35935U 09051E   24013.61985236  .00001710  00000+0  38877-3 0  9994
2 35935  98.4956 254.6631 0009070  94.9114 265.3119 14.57242135759607
XIWANG-1 (HOPE-1)       
1 36122U 09072B   24013.38387487  .00000004  00000+0  12322-3 0  9996
2 36122 100.2720 335.9079 0008095  99.6523 260.5505 13.16393569676457
JUGNU                   
1 37839U 11058B   24014.13974271  .00000675  00000+0  21571-3 0  9996
2 37839  19.9619 282.9160 0018784  25.9854 122.2711 14.13094384633764
SRMSAT                  
1 37841U 11058D   24013.26910277  .00000580  00000+0  17272-3 0  9996
2 37841  19.9741  19.7381 0011910 179.8496 282.7153 14.11014924632513
M-CUBED & EXP-1 PRIME   
1 37855U 11061F   24013.21594541  .00066314  00000+0  13105-2 0  9999
2 37855 101.6903 101.4158 0084038 109.9163 251.1148 15.43068119668754
STRAND-1                
1 39090U 13009E   24013.47265894  .00000664  00000+0  24378-3 0  9991
2 39090  98.3798 206.0433 0008931   4.7337 355.3932 14.35845031569891
BEESAT-2                
1 39136U 13015G   24013.30218120  .00461246  00000+0  18674-2 0  9999
2 39136  64.8513 351.6267 0007583 280.3156  79.7148 15.84826264594335
ZACUBE-1 (TSHEPISOSAT)  
1 39417U 13066B   24013.86567421  .00007489  00000+0  81938-3 0  9998
2 39417  97.7156 333.7718 0051618 315.1686  44.5365 14.87121803548485
GOMX-1                  
1 39430U 13066Q   24014.13341304  .00003882  00000+0  66048-3 0  9992
2 39430  97.7541 257.8133 0143477  25.7195 335.1052 14.63028561540361
CUBEBUG-2 (LO-74)       
1 39440U 13066AA  24013.79030164  .00006968  00000+0  85630-3 0  9999
2 39440  97.7988 321.2067 0074136  61.9952 298.8736 14.81375320546512
FUNCUBE-1 (AO-73)       
1 39444U 13066AE  24013.82182810  .00009724  00000+0  10061-2 0  9991
2 39444  97.7011 336.5310 0049065 297.8894  61.7358 14.89385749547557
UWE-3                   
1 39446U 13066AG  24013.40541981  .00007640  00000+0  89005-3 0  9995
2 39446  97.7639 326.9043 0063471  12.4132 347.8629 14.84062865545580
SPROUT                  
1 39770U 14029E   24013.97836730  .00056696  00000+0  28708-2 0  9993
2 39770  98.0027 154.8051 0005982 325.2622  34.8218 15.16764854523939
UNISAT-6                
1 40012U 14033C   24014.01780935  .00004824  00000+0  65304-3 0  9990
2 40012  97.6839 183.1126 0055369  90.8021 269.9536 14.78344336514903
DUCHIFAT-1              
1 40021U 14033M   24014.15360456  .00015422  00000+0  11654-2 0  9991
2 40021  98.0749 350.7928 0012524 264.8903  95.0891 15.02409015520811
QB50P1                  
1 40025U 14033R   24013.80413899  .00009769  00000+0  85809-3 0  9997
2 40025  98.0233 330.0190 0009641 322.1418  37.9124 14.96757877520122
ZDPS 2A                 
1 40901U 15049C   24014.02504627  .02185868  54372-2  20002-2 0  9997
2 40901  97.3953  44.0361 0003032 125.5270 234.6298 16.13888409462105
KAITUO 1A               
1 40904U 15049F   24014.08583253  .00031340  00000+0  91303-3 0  9990
2 40904  97.4944  26.9688 0010560 138.7016 221.5027 15.35278848460564
2015-049G               
1 40905U 15049G   24014.10616023  .00011529  00000+0  46763-3 0  9993
2 40905  97.5256  22.0209 0013041 158.8159 201.3621 15.24708555460057
XW-2C                   
1 40906U 15049H   24014.05342748  .00023989  00000+0  73785-3 0  9995
2 40906  97.4889  27.8673 0011517 128.4148 231.8130 15.33606872460630
XW-2D                   
1 40907U 15049J   24014.08900197  .00030121  00000+0  82006-3 0  9999
2 40907  97.4853  29.2432 0010553 118.6300 241.6007 15.37403588460782
LILACSAT-2              
1 40908U 15049K   24014.10505250  .00010037  00000+0  42859-3 0  9990
2 40908  97.5272  22.0748 0013357 165.9924 194.1685 15.23005534459867
XW-2E                   
1 40909U 15049L   24014.01997579  .00129703  00000+0  13786-2 0  9997
2 40909  97.4311  39.2636 0007379  79.2175 280.9914 15.63587920461768
XW-2F                   
1 40910U 15049M   24014.13248495  .00120878  00000+0  13530-2 0  9999
2 40910  97.4418  38.6253 0008067  80.9492 279.2678 15.62278915461502
XW-2B                   
1 40911U 15049N   24014.06015186  .00030666  00000+0  84553-3 0  9990
2 40911  97.4830  29.4928 0010530 120.3247 239.9040 15.37006239460654
KAITUO 1B               
1 40912U 15049P   24014.13352076  .00916379  41292-3  17218-2 0  9990
2 40912  97.3818  45.8821 0001914  72.6521 287.4967 16.00976370462497
LAPAN-A2                
1 40931U 15052B   24006.28856983  .00001263  00000+0  84248-4 0  9992
2 40931   6.0004  76.3799 0013541 291.8204  68.0484 14.77555377447321
E-ST@R-II               
1 41459U 16025D   24014.16649146  .00094179  00000+0  14318-2 0  9993
2 41459  98.1528 244.5524 0070093  73.9974 286.8982 15.51372457425343
AIST-2D (RS-48)         
1 41465U 16026B   24014.12981180  .00099496  00000+0  59108-3 0  9998
2 41465  96.9596 248.5972 0005629 129.7009 230.4756 15.77700009432971
